OBJECT_NAME,OBJECT_ID,EPOCH,MEAN_MOTION,ECCENTRICITY,INCLINATION,RA_OF_ASC_NODE,ARG_OF_PERICENTER,MEAN_ANOMALY,EPHEMERIS_TYPE,CLASSIFICATION_TYPE,NORAD_CAT_ID,ELEMENT_SET_NO,REV_AT_EPOCH,BSTAR,MEAN_MOTION_DOT,MEAN_MOTION_DDOT
TDRS 3,1988-091B,2026-06-20T09:10:28.742304,1.00272364,.00383,12.5990,340.9850,356.4263,19.9856,0,U,19548,999,12542,0,-.309E-5,0
FLTSATCOM 8 (USA 46),1989-077A,2026-06-20T10:51:12.936384,1.00275807,.000422,12.4207,351.1441,57.5068,148.5574,0,U,20253,999,26059,0,-.377E-5,0
SKYNET 4C,1990-079A,2026-06-11T04:50:51.491040,1.00274127,.00024,13.3424,349.8525,96.2313,279.5534,0,U,20776,999,13083,0,.132E-5,0
TDRS 5,1991-054B,2026-06-20T11:39:58.982112,1.00276037,.0006201,14.0706,353.7579,274.9854,7.2953,0,U,21639,999,12774,0,.73E-6,0
TDRS 6,1993-003B,2026-06-20T01:03:30.623616,1.00270344,.00082095,14.1828,357.0374,178.4700,62.8072,0,U,22314,999,12243,0,-.307E-5,0
UFO 2 (USA 95),1993-056A,2026-06-20T04:24:40.638816,1.00270176,.0004971,11.8958,3.5382,9.3128,350.3609,0,U,22787,999,11857,0,.114E-5,0
USA 99 (MILSTAR-1 1),1994-009A,2026-06-19T20:28:38.572608,0.98724155,.00008495,17.6313,27.6798,225.3426,312.3366,0,U,22988,999,3297,0,-.236E-5,0
UFO 4 (USA 108),1995-003A,2026-06-20T08:30:53.722080,1.00272715,.0003078,9.6904,13.2184,71.6725,123.5778,0,U,23467,999,11498,0,-.32E-6,0
TDRS 7,1995-035B,2026-06-19T23:33:48.962880,1.00280526,.00115795,13.3760,348.1707,83.0115,279.2998,0,U,23613,999,11328,0,-.25E-5,0
USA 115 (MILSTAR-1 2),1995-060A,2026-06-20T05:18:45.412416,1.00364409,.0001604,14.0740,3.7293,135.3698,115.8094,0,U,23712,999,3291,0,-.208E-5,0
INMARSAT 3-F1,1996-020A,2026-06-20T05:31:38.559360,0.99978301,.0003787,10.6069,46.6064,56.4316,149.9351,0,U,23839,999,11028,0,-.108E-5,0
INMARSAT 3-F2,1996-053A,2026-06-20T11:10:40.005120,1.00002274,.0006603,9.8639,53.9030,33.0245,135.6144,0,U,24307,999,10895,0,-.29E-5,0
INMARSAT 3-F3,1996-070A,2026-06-19T19:54:24.651072,0.99983665,.00032728,10.3236,49.6281,29.1261,167.6670,0,U,24674,999,10793,0,.127E-5,0
AMC-3,1997-050A,2026-06-20T08:43:22.524096,0.99063277,.0004276,8.1731,63.9526,28.7988,162.4826,0,U,24936,999,5246,0,.32E-6,0
USA 134,1997-065A,2026-06-20T09:22:01.989120,1.00268962,.0003372,12.7884,21.7019,339.9641,295.1138,0,U,25019,999,3298,0,-.73E-6,0
INMARSAT 3-F5,1998-006B,2026-06-20T02:18:24.384384,1.00274648,.0004223,9.7004,53.2332,31.4135,164.2527,0,U,25153,999,10392,0,-.3E-5,0
ABS-6,1999-053A,2026-06-20T11:06:32.399136,1.00269039,.0003808,0.0231,32.5750,75.7645,125.9850,0,U,25924,999,9787,0,0,0
UFO 10 (USA 146),1999-063A,2026-06-20T09:17:58.024032,1.00270301,.0001926,9.8747,27.1851,45.2927,312.6649,0,U,25967,999,9737,0,-.198E-5,0
ASIASTAR,2000-016A,2026-06-19T15:05:11.116896,1.00267815,.00045953,9.1362,58.1299,30.2265,150.7520,0,U,26107,999,9594,0,-.342E-5,0
USA 149 (DSP 20),2000-024A,2026-06-20T04:30:27.857088,1.00276399,.00019663,13.1731,11.8345,315.8167,203.0148,0,U,26356,999,3294,0,.84E-6,0
TDRS 8,2000-034A,2026-06-19T14:59:19.180320,1.00277176,.00051407,12.6858,31.2997,29.9330,156.0649,0,U,26388,999,9520,0,-.206E-5,0
NSS-11,2000-059A,2026-06-20T08:32:01.114080,1.00272335,.0002909,2.1358,81.3554,358.9834,132.2266,0,U,26554,999,4132,0,.2E-6,0
USA 153,2000-065A,2026-06-19T19:04:21.864864,1.00269130,.00029936,11.6293,35.4010,47.0413,246.1317,0,U,26575,999,3295,0,-.335E-5,0
AMC-6,2000-067A,2026-06-20T09:28:38.667936,1.00270149,.0003583,0.1614,83.1922,14.3540,178.1789,0,U,26580,999,9392,0,.84E-6,0
USA 157 (MILSTAR-2 2),2001-009A,2026-06-20T10:02:43.933056,1.00276594,.0039242,11.5467,19.7486,177.4528,72.0947,0,U,26715,999,3297,0,.1E-5,0
INTELSAT 902 (IS-902),2001-039A,2026-06-20T04:02:12.791904,1.00270935,.00042805,6.1243,71.7474,14.2873,192.7993,0,U,26900,999,9072,0,-.29E-5,0
USA 164 (MILSTAR-2 3),2002-001A,2026-06-20T06:04:35.056128,1.00267381,.0099678,11.1840,21.8926,8.2747,348.4440,0,U,27168,999,3298,0,.87E-6,0
INTELSAT 904 (IS-904),2002-007A,2026-06-20T02:24:46.948032,1.00270151,.0006584,6.9283,69.1510,7.3069,196.5436,0,U,27380,999,5179,0,-.233E-5,0
DIRECTV 5 (TEMPO 1),2002-023A,2026-06-20T10:03:08.932032,1.00272003,.000324,4.8871,75.2720,16.1878,217.8431,0,U,27426,999,8815,0,-.63E-6,0
INTELSAT 905 (IS-905),2002-027A,2026-06-20T08:45:14.844096,1.00272920,.0003977,6.7625,69.7638,23.7456,169.1624,0,U,27438,999,5139,0,.87E-6,0
GALAXY 3C (G-3C),2002-030A,2026-06-20T08:30:38.771424,1.00271504,.000169,3.7412,77.9368,28.7445,194.6953,0,U,27445,999,4652,0,-.158E-5,0
